0 THOR ABLESTAR DEB
1 00409U 61015EJ  13283.87928348  .00000599  00000-0  30793-3 0  8944
2 00409 066.7163 093.3055 0077077 267.1443 208.0740 14.20518329682477
0 THOR ABLESTAR DEB
1 00409U 61015EJ  13285.93047434  .00000455  00000-0  24294-3 0  8952
2 00409 066.7164 088.0260 0077152 265.7730 257.4932 14.20521750682769
0 THOR ABLESTAR DEB
1 00409U 61015EJ  13288.51514091  .00000934  00000-0  45898-3 0  8963
2 00409 066.7169 081.3731 0077126 264.0874 155.0085 14.20525293683135
0 THOR ABLESTAR DEB
1 00409U 61015EJ  13290.70642904  .00001078  00000-0  52415-3 0  8976
2 00409 066.7173 075.7329 0077175 262.6829 200.8688 14.20528044683447
0 THOR ABLESTAR DEB
1 00409U 61015EJ  13292.82170381  .00001353  00000-0  64808-3 0  8982
2 00409 066.7176 070.2885 0077140 261.3368 218.0206 14.20530706683741
0 THOR ABLESTAR DEB
1 00409U 61015EJ  13295.48705637  .00001356  00000-0  64907-3 0  8999
2 00409 066.7179 063.4280 0077202 259.6379 168.2119 14.20539637684122
